[{"OBJECT_NAME":"ONEWEB-0317","OBJECT_ID":"2021-075AE","EPOCH":"2025-09-24T10:33:48.877920","MEAN_MOTION":13.12444607,"ECCENTRICITY":0.00015976,"INCLINATION":87.8925,"RA_OF_ASC_NODE":43.4513,"ARG_OF_PERICENTER":126.2854,"MEAN_ANOMALY":233.8423,"EPHEMERIS_TYPE":0,"CLASSIFICATION_TYPE":"U","NORAD_CAT_ID":49103,"ELEMENT_SET_NO":999,"REV_AT_EPOCH":20033,"BSTAR":0.0011271558,"MEAN_MOTION_DOT":4.18e-6,"MEAN_MOTION_DDOT":0},{"OBJECT_NAME":"ONEWEB-0318","OBJECT_ID":"2021-075AF","EPOCH":"2025-09-24T21:23:30.503328","MEAN_MOTION":13.18686584,"ECCENTRICITY":0.00018833,"INCLINATION":87.921,"RA_OF_ASC_NODE":28.134,"ARG_OF_PERICENTER":93.4734,"MEAN_ANOMALY":266.6613,"EPHEMERIS_TYPE":0,"CLASSIFICATION_TYPE":"U","NORAD_CAT_ID":49104,"ELEMENT_SET_NO":999,"REV_AT_EPOCH":20220,"BSTAR":-0.00031800816,"MEAN_MOTION_DOT":-1.12e-6,"MEAN_MOTION_DDOT":0},{"OBJECT_NAME":"ONEWEB-0319","OBJECT_ID":"2021-075AG","EPOCH":"2025-09-24T20:27:29.430144","MEAN_MOTION":13.17649962,"ECCENTRICITY":0.00020399,"INCLINATION":87.9062,"RA_OF_ASC_NODE":58.6494,"ARG_OF_PERICENTER":87.455,"MEAN_ANOMALY":272.6815,"EPHEMERIS_TYPE":0,"CLASSIFICATION_TYPE":"U","NORAD_CAT_ID":49105,"ELEMENT_SET_NO":999,"REV_AT_EPOCH":19866,"BSTAR":2.1626665e-5,"MEAN_MOTION_DOT":2.1e-7,"MEAN_MOTION_DDOT":0},{"OBJECT_NAME":"ONEWEB-0323","OBJECT_ID":"2021-075AH","EPOCH":"2025-09-24T21:18:29.945376","MEAN_MOTION":13.12442692,"ECCENTRICITY":0.00023065,"INCLINATION":87.8928,"RA_OF_ASC_NODE":43.3487,"ARG_OF_PERICENTER":87.9253,"MEAN_ANOMALY":272.2139,"EPHEMERIS_TYPE":0,"CLASSIFICATION_TYPE":"U","NORAD_CAT_ID":49106,"ELEMENT_SET_NO":999,"REV_AT_EPOCH":19975,"BSTAR":-0.0001350757,"MEAN_MOTION_DOT":-3.6e-7,"MEAN_MOTION_DDOT":0},{"OBJECT_NAME":"ONEWEB-0329","OBJECT_ID":"2021-075AJ","EPOCH":"2025-09-24T20:39:39.834144","MEAN_MOTION":13.1764901,"ECCENTRICITY":0.00018384,"INCLINATION":87.9059,"RA_OF_ASC_NODE":58.6512,"ARG_OF_PERICENTER":94.5038,"MEAN_ANOMALY":265.6303,"EPHEMERIS_TYPE":0,"CLASSIFICATION_TYPE":"U","NORAD_CAT_ID":49107,"ELEMENT_SET_NO":999,"REV_AT_EPOCH":19864,"BSTAR":3.0567953e-5,"MEAN_MOTION_DOT":2.5e-7,"MEAN_MOTION_DDOT":0},{"OBJECT_NAME":"ONEWEB-0330","OBJECT_ID":"2021-075AK","EPOCH":"2025-09-24T17:02:10.017888","MEAN_MOTION":13.17649383,"ECCENTRICITY":0.00018547,"INCLINATION":87.9062,"RA_OF_ASC_NODE":58.6854,"ARG_OF_PERICENTER":99.6498,"MEAN_ANOMALY":260.4843,"EPHEMERIS_TYPE":0,"CLASSIFICATION_TYPE":"U","NORAD_CAT_ID":49108,"ELEMENT_SET_NO":999,"REV_AT_EPOCH":19866,"BSTAR":0.00025547325,"MEAN_MOTION_DOT":1.12e-6,"MEAN_MOTION_DDOT":0},{"OBJECT_NAME":"ONEWEB-0292","OBJECT_ID":"2021-083A","EPOCH":"2025-09-24T20:08:09.457440","MEAN_MOTION":13.13467915,"ECCENTRICITY":0.00018308,"INCLINATION":87.9045,"RA_OF_ASC_NODE":12.984,"ARG_OF_PERICENTER":95.9034,"MEAN_ANOMALY":264.2303,"EPHEMERIS_TYPE":0,"CLASSIFICATION_TYPE":"U","NORAD_CAT_ID":49186,"ELEMENT_SET_NO":999,"REV_AT_EPOCH":19609,"BSTAR":0.00021123445,"MEAN_MOTION_DOT":9.0e-7,"MEAN_MOTION_DDOT":0},{"OBJECT_NAME":"ONEWEB-0303","OBJECT_ID":"2021-083B","EPOCH":"2025-09-24T21:18:45.016992","MEAN_MOTION":13.18684428,"ECCENTRICITY":0.00018644,"INCLINATION":87.921,"RA_OF_ASC_NODE":28.1351,"ARG_OF_PERICENTER":94.546,"MEAN_ANOMALY":265.5885,"EPHEMERIS_TYPE":0,"CLASSIFICATION_TYPE":"U","NORAD_CAT_ID":49187,"ELEMENT_SET_NO":999,"REV_AT_EPOCH":19501,"BSTAR":-6.8087375e-5,"MEAN_MOTION_DOT":-1.4e-7,"MEAN_MOTION_DDOT":0},{"OBJECT_NAME":"ONEWEB-0306","OBJECT_ID":"2021-083C","EPOCH":"2025-09-24T21:04:30.236736","MEAN_MOTION":13.18684705,"ECCENTRICITY":0.00016304,"INCLINATION":87.921,"RA_OF_ASC_NODE":28.1229,"ARG_OF_PERICENTER":105.7266,"MEAN_ANOMALY":254.4046,"EPHEMERIS_TYPE":0,"CLASSIFICATION_TYPE":"U","NORAD_CAT_ID":49188,"ELEMENT_SET_NO":999,"REV_AT_EPOCH":19505,"BSTAR":-0.00015430028,"MEAN_MOTION_DOT":-4.8e-7,"MEAN_MOTION_DDOT":0},{"OBJECT_NAME":"ONEWEB-0307","OBJECT_ID":"2021-083D","EPOCH":"2025-09-24T19:59:36.903264","MEAN_MOTION":13.13469701,"ECCENTRICITY":0.00017979,"INCLINATION":87.9033,"RA_OF_ASC_NODE":12.9818,"ARG_OF_PERICENTER":110.4241,"MEAN_ANOMALY":249.7082,"EPHEMERIS_TYPE":0,"CLASSIFICATION_TYPE":"U","NORAD_CAT_ID":49189,"ELEMENT_SET_NO":999,"REV_AT_EPOCH":19609,"BSTAR":0.00065633063,"MEAN_MOTION_DOT":2.52e-6,"MEAN_MOTION_DDOT":0},{"OBJECT_NAME":"ONEWEB-0320","OBJECT_ID":"2021-083E","EPOCH":"2025-09-24T21:14:00.867264","MEAN_MOTION":13.18683824,"ECCENTRICITY":0.00017295,"INCLINATION":87.9212,"RA_OF_ASC_NODE":28.1495,"ARG_OF_PERICENTER":99.0309,"MEAN_ANOMALY":261.1018,"EPHEMERIS_TYPE":0,"CLASSIFICATION_TYPE":"U","NORAD_CAT_ID":49190,"ELEMENT_SET_NO":999,"REV_AT_EPOCH":19501,"BSTAR":0.0062168187,"MEAN_MOTION_DOT":2.464e-5,"MEAN_MOTION_DDOT":0},{"OBJECT_NAME":"ONEWEB-0321","OBJECT_ID":"2021-083F","EPOCH":"2025-09-24T10:42:23.514336","MEAN_MOTION":13.20772772,"ECCENTRICITY":0.00017253,"INCLINATION":87.9257,"RA_OF_ASC_NODE":327.4194,"ARG_OF_PERICENTER":107.5666,"MEAN_ANOMALY":252.5656,"EPHEMERIS_TYPE":0,"CLASSIFICATION_TYPE":"U","NORAD_CAT_ID":49191,"ELEMENT_SET_NO":999,"REV_AT_EPOCH":20175,"BSTAR":9.6034569e-5,"MEAN_MOTION_DOT":5.2e-7,"MEAN_MOTION_DDOT":0},{"OBJECT_NAME":"ONEWEB-0322","OBJECT_ID":"2021-083G","EPOCH":"2025-09-24T19:53:31.143552","MEAN_MOTION":13.13467322,"ECCENTRICITY":0.00013821,"INCLINATION":87.9047,"RA_OF_ASC_NODE":12.9802,"ARG_OF_PERICENTER":112.8369,"MEAN_ANOMALY":247.2906,"EPHEMERIS_TYPE":0,"CLASSIFICATION_TYPE":"U","NORAD_CAT_ID":49192,"ELEMENT_SET_NO":999,"REV_AT_EPOCH":19608,"BSTAR":1.490153e-5,"MEAN_MOTION_DOT":1.8e-7,"MEAN_MOTION_DDOT":0},{"OBJECT_NAME":"ONEWEB-0324","OBJECT_ID":"2021-083H","EPOCH":"2025-09-24T20:55:00.007104","MEAN_MOTION":13.18686303,"ECCENTRICITY":0.00018385,"INCLINATION":87.921,"RA_OF_ASC_NODE":28.1319,"ARG_OF_PERICENTER":102.1184,"MEAN_ANOMALY":258.0154,"EPHEMERIS_TYPE":0,"CLASSIFICATION_TYPE":"U","NORAD_CAT_ID":49193,"ELEMENT_SET_NO":999,"REV_AT_EPOCH":19503,"BSTAR":-9.3415499e-5,"MEAN_MOTION_DOT":-2.4e-7,"MEAN_MOTION_DDOT":0},{"OBJECT_NAME":"ONEWEB-0325","OBJECT_ID":"2021-083J","EPOCH":"2025-09-24T20:59:45.267072","MEAN_MOTION":13.18684325,"ECCENTRICITY":0.00016256,"INCLINATION":87.9211,"RA_OF_ASC_NODE":28.1489,"ARG_OF_PERICENTER":99.7077,"MEAN_ANOMALY":260.4239,"EPHEMERIS_TYPE":0,"CLASSIFICATION_TYPE":"U","NORAD_CAT_ID":49194,"ELEMENT_SET_NO":999,"REV_AT_EPOCH":19504,"BSTAR":-5.2256515e-5,"MEAN_MOTION_DOT":-8.0e-8,"MEAN_MOTION_DDOT":0},{"OBJECT_NAME":"ONEWEB-0326","OBJECT_ID":"2021-083K","EPOCH":"2025-09-24T21:21:19.742976","MEAN_MOTION":13.18685818,"ECCENTRICITY":0.00018599,"INCLINATION":87.921,"RA_OF_ASC_NODE":28.1336,"ARG_OF_PERICENTER":88.9315,"MEAN_ANOMALY":271.203,"EPHEMERIS_TYPE":0,"CLASSIFICATION_TYPE":"U","NORAD_CAT_ID":49195,"ELEMENT_SET_NO":999,"REV_AT_EPOCH":19503,"BSTAR":-0.00013640224,"MEAN_MOTION_DOT":-4.1e-7,"MEAN_MOTION_DDOT":0},{"OBJECT_NAME":"ONEWEB-0327","OBJECT_ID":"2021-083L","EPOCH":"2025-09-24T21:20:55.865472","MEAN_MOTION":13.18684126,"ECCENTRICITY":0.00017976,"INCLINATION":87.9203,"RA_OF_ASC_NODE":28.1594,"ARG_OF_PERICENTER":86.675,"MEAN_ANOMALY":273.4588,"EPHEMERIS_TYPE":0,"CLASSIFICATION_TYPE":"U","NORAD_CAT_ID":49196,"ELEMENT_SET_NO":999,"REV_AT_EPOCH":19505,"BSTAR":-0.00017926132,"MEAN_MOTION_DOT":-5.8e-7,"MEAN_MOTION_DDOT":0}]
