ONEWEB-0317             
1 49103U 21075AE  25267.44014905  .00000418  00000+0  11272-2 0  9998
2 49103  87.8925  43.4513 0001597 126.2854 233.8423 13.12444607200333
ONEWEB-0318             
1 49104U 21075AF  25267.89132527 -.00000112  00000+0 -31801-3 0  9993
2 49104  87.9210  28.1340 0001883  93.4734 266.6613 13.18686584202201
ONEWEB-0319             
1 49105U 21075AG  25267.85242396  .00000021  00000+0  21627-4 0  9999
2 49105  87.9062  58.6494 0002039  87.4550 272.6815 13.17649962198661
ONEWEB-0323             
1 49106U 21075AH  25267.88784659 -.00000036  00000+0 -13508-3 0  9992
2 49106  87.8928  43.3487 0002306  87.9253 272.2139 13.12442692199759
ONEWEB-0329             
1 49107U 21075AJ  25267.86087771  .00000025  00000+0  30568-4 0  9994
2 49107  87.9059  58.6512 0001838  94.5038 265.6303 13.17649010198642
ONEWEB-0330             
1 49108U 21075AK  25267.70983817  .00000112  00000+0  25547-3 0  9991
2 49108  87.9062  58.6854 0001854  99.6498 260.4843 13.17649383198667
ONEWEB-0292             
1 49186U 21083A   25267.83899835  .00000090  00000+0  21123-3 0  9997
2 49186  87.9045  12.9840 0001830  95.9034 264.2303 13.13467915196094
ONEWEB-0303             
1 49187U 21083B   25267.88802103 -.00000014  00000+0 -68087-4 0  9994
2 49187  87.9210  28.1351 0001864  94.5460 265.5885 13.18684428195015
ONEWEB-0306             
1 49188U 21083C   25267.87812774 -.00000048  00000+0 -15430-3 0  9999
2 49188  87.9210  28.1229 0001630 105.7266 254.4046 13.18684705195058
ONEWEB-0307             
1 49189U 21083D   25267.83306601  .00000252  00000+0  65633-3 0  9998
2 49189  87.9033  12.9818 0001797 110.4241 249.7082 13.13469701196091
ONEWEB-0320             
1 49190U 21083E   25267.88473226  .00002464  00000+0  62168-2 0  9999
2 49190  87.9212  28.1495 0001729  99.0309 261.1018 13.18683824195011
ONEWEB-0321             
1 49191U 21083F   25267.44610549  .00000052  00000+0  96035-4 0  9996
2 49191  87.9257 327.4194 0001725 107.5666 252.5656 13.20772772201754
ONEWEB-0322             
1 49192U 21083G   25267.82883268  .00000018  00000+0  14902-4 0  9994
2 49192  87.9047  12.9802 0001382 112.8369 247.2906 13.13467322196084
ONEWEB-0324             
1 49193U 21083H   25267.87152786 -.00000024  00000+0 -93415-4 0  9999
2 49193  87.9210  28.1319 0001838 102.1184 258.0154 13.18686303195038
ONEWEB-0325             
1 49194U 21083J   25267.87482948 -.00000008  00000+0 -52257-4 0  9997
2 49194  87.9211  28.1489 0001625  99.7077 260.4239 13.18684325195048
ONEWEB-0326             
1 49195U 21083K   25267.88981184 -.00000041  00000+0 -13640-3 0  9994
2 49195  87.9210  28.1336 0001859  88.9315 271.2030 13.18685818195039
ONEWEB-0327             
1 49196U 21083L   25267.88953548 -.00000058  00000+0 -17926-3 0  9997
2 49196  87.9203  28.1594 0001797  86.6750 273.4588 13.18684126195052
